[{"OBJECT_NAME":"STARLINK-32685","OBJECT_ID":"2025-003P","EPOCH":"2026-03-09T00:04:27.653376","MEAN_MOTION":15.27605936,"ECCENTRICITY":0.00019809,"INCLINATION":43.001,"RA_OF_ASC_NODE":293.1001,"ARG_OF_PERICENTER":250.2841,"MEAN_ANOMALY":109.7797,"EPHEMERIS_TYPE":0,"CLASSIFICATION_TYPE":"U","NORAD_CAT_ID":62500,"ELEMENT_SET_NO":999,"REV_AT_EPOCH":6651,"BSTAR":0.0010523619,"MEAN_MOTION_DOT":0.00028833,"MEAN_MOTION_DDOT":0},{"OBJECT_NAME":"OBJECT H","OBJECT_ID":"2025-055H","EPOCH":"2026-03-09T23:29:50.051328","MEAN_MOTION":15.30330066,"ECCENTRICITY":0.00075967,"INCLINATION":97.636,"RA_OF_ASC_NODE":211.9572,"ARG_OF_PERICENTER":140.4354,"MEAN_ANOMALY":219.7441,"EPHEMERIS_TYPE":0,"CLASSIFICATION_TYPE":"U","NORAD_CAT_ID":63298,"ELEMENT_SET_NO":999,"REV_AT_EPOCH":5423,"BSTAR":0.0015582864,"MEAN_MOTION_DOT":0.00045901,"MEAN_MOTION_DDOT":0}]
